[{"OBJECT_NAME":"STARLINK-3146","OBJECT_ID":"2021-104G","EPOCH":"2026-03-09T17:10:28.452576","MEAN_MOTION":15.08834117,"ECCENTRICITY":0.00012206,"INCLINATION":53.2155,"RA_OF_ASC_NODE":229.0031,"ARG_OF_PERICENTER":76.5722,"MEAN_ANOMALY":283.5406,"EPHEMERIS_TYPE":0,"CLASSIFICATION_TYPE":"U","NORAD_CAT_ID":49414,"ELEMENT_SET_NO":999,"REV_AT_EPOCH":23863,"BSTAR":0.00014064841,"MEAN_MOTION_DOT":1.951e-5,"MEAN_MOTION_DDOT":0},{"OBJECT_NAME":"UNKNOWN","OBJECT_ID":"","EPOCH":"2026-03-07T17:21:07.805664","MEAN_MOTION":15.09455608,"ECCENTRICITY":0.0009057,"INCLINATION":82.8696,"RA_OF_ASC_NODE":177.6495,"ARG_OF_PERICENTER":167.3062,"MEAN_ANOMALY":192.8398,"EPHEMERIS_TYPE":0,"CLASSIFICATION_TYPE":"U","NORAD_CAT_ID":87725,"ELEMENT_SET_NO":999,"REV_AT_EPOCH":64668,"BSTAR":0.0060116,"MEAN_MOTION_DOT":0.00097492,"MEAN_MOTION_DDOT":0}]
